ORBCOMM FM115           
1 41186U 15081H   25111.89234474  .00001565  00000+0  34071-3 0  9990
2 41186  46.9990 307.2759 0000828 193.8757 166.2107 14.62382435499531
ORBCOMM FM108           
1 41187U 15081J   25111.98220415  .00002215  00000+0  51355-3 0  9998
2 41187  47.0055  12.3817 0002345  44.7255 315.3819 14.58029996498595
ORBCOMM FM116           
1 41189U 15081L   25111.45799753  .00001769  00000+0  41497-3 0  9997
2 41189  47.0011 103.4854 0002002 267.1610  92.9047 14.58324314497376
